{
  "type": "FeatureCollection",
  "features": [
    {
      "type": "Feature",
      "properties": {
        "norad_id": 29760,
        "name": "FENGYUN 1C DEB",
        "group": "fengyun-1c-debris",
        "lat": -72.11311424871526,
        "lon": 8.356523535963081,
        "alt_km": 864.1831947583705,
        "timestamp": "2025-12-03T08:58:46.272467+00:00",
        "meta_object_name": "FENGYUN 1C DEB",
        "meta_object_id": "1999-025BA",
        "meta_epoch": "2025-12-02T23:06:20.149344",
        "meta_mean_motion": 14.08278297,
        "meta_eccentricity": 0.0130356,
        "meta_inclination": 98.7623,
        "meta_ra_of_asc_node": 339.4096,
        "meta_arg_of_pericenter": 201.1788,
        "meta_mean_anomaly": 158.3956,
        "meta_ephemeris_type": 0,
        "meta_classification_type": "U",
        "meta_norad_cat_id": 29760,
        "meta_element_set_no": 999,
        "meta_rev_at_epoch": 96955,
        "meta_bstar": 0.00019855,
        "meta_mean_motion_dot": 3.24e-06,
        "meta_mean_motion_ddot": 0,
        "tle_line1": "1 29760U 99025BA  25336.96273321  .00000324  00000+0  19855-3 0  9990",
        "tle_line2": "2 29760  98.7623 339.4096 0130356 201.1788 158.3956 14.08278297969559"
      },
      "geometry": {
        "type": "Point",
        "coordinates": [
          8.356523535963081,
          -72.11311424871526
        ]
      }
    },
    {
      "type": "Feature",
      "properties": {
        "norad_id": 29762,
        "name": "FENGYUN 1C DEB",
        "group": "fengyun-1c-debris",
        "lat": 47.852445576286414,
        "lon": 150.00614060658907,
        "alt_km": 902.2029535539014,
        "timestamp": "2025-12-03T08:58:46.272478+00:00",
        "meta_object_name": "FENGYUN 1C DEB",
        "meta_object_id": "1999-025BC",
        "meta_epoch": "2025-12-02T22:29:34.664928",
        "meta_mean_motion": 14.2254412,
        "meta_eccentricity": 0.0204636,
        "meta_inclination": 98.5783,
        "meta_ra_of_asc_node": 319.9801,
        "meta_arg_of_pericenter": 4.149,
        "meta_mean_anomaly": 48.9817,
        "meta_ephemeris_type": 0,
        "meta_classification_type": "U",
        "meta_norad_cat_id": 29762,
        "meta_element_set_no": 999,
        "meta_rev_at_epoch": 97809,
        "meta_bstar": 0.00055655,
        "meta_mean_motion_dot": 1.493e-05,
        "meta_mean_motion_ddot": 0,
        "tle_line1": "1 29762U 99025BC  25336.93720677  .00001493  00000+0  55655-3 0  9996",
        "tle_line2": "2 29762  98.5783 319.9801 0204636   4.1490  48.9817 14.22544120978093"
      },
      "geometry": {
        "type": "Point",
        "coordinates": [
          150.00614060658907,
          47.852445576286414
        ]
      }
    },
    {
      "type": "Feature",
      "properties": {
        "norad_id": 29763,
        "name": "FENGYUN 1C DEB",
        "group": "fengyun-1c-debris",
        "lat": 51.334923299595424,
        "lon": 148.16779551516268,
        "alt_km": 843.6131297398679,
        "timestamp": "2025-12-03T08:58:46.272489+00:00",
        "meta_object_name": "FENGYUN 1C DEB",
        "meta_object_id": "1999-025BD",
        "meta_epoch": "2025-12-02T22:23:50.634816",
        "meta_mean_motion": 14.07866886,
        "meta_eccentricity": 0.0126969,
        "meta_inclination": 98.7601,
        "meta_ra_of_asc_node": 316.6293,
        "meta_arg_of_pericenter": 208.2466,
        "meta_mean_anomaly": 207.4354,
        "meta_ephemeris_type": 0,
        "meta_classification_type": "U",
        "meta_norad_cat_id": 29763,
        "meta_element_set_no": 999,
        "meta_rev_at_epoch": 96912,
        "meta_bstar": 0.00015764,
        "meta_mean_motion_dot": 2.45e-06,
        "meta_mean_motion_ddot": 0,
        "tle_line1": "1 29763U 99025BD  25336.93322494  .00000245  00000+0  15764-3 0  9993",
        "tle_line2": "2 29763  98.7601 316.6293 0126969 208.2466 207.4354 14.07866886969127"
      },
      "geometry": {
        "type": "Point",
        "coordinates": [
          148.16779551516268,
          51.334923299595424
        ]
      }
    },
    {
      "type": "Feature",
      "properties": {
        "norad_id": 29765,
        "name": "FENGYUN 1C DEB",
        "group": "fengyun-1c-debris",
        "lat": -25.13587808629956,
        "lon": 171.66994151890756,
        "alt_km": 889.2117968025505,
        "timestamp": "2025-12-03T08:58:46.272499+00:00",
        "meta_object_name": "FENGYUN 1C DEB",
        "meta_object_id": "1999-025BF",
        "meta_epoch": "2025-12-02T08:05:17.141280",
        "meta_mean_motion": 14.02147322,
        "meta_eccentricity": 0.0059532,
        "meta_inclination": 98.831,
        "meta_ra_of_asc_node": 354.8482,
        "meta_arg_of_pericenter": 121.4399,
        "meta_mean_anomaly": 250.9003,
        "meta_ephemeris_type": 0,
        "meta_classification_type": "U",
        "meta_norad_cat_id": 29765,
        "meta_element_set_no": 999,
        "meta_rev_at_epoch": 96605,
        "meta_bstar": 0.00027846,
        "meta_mean_motion_dot": 3.9e-06,
        "meta_mean_motion_ddot": 0,
        "tle_line1": "1 29765U 99025BF  25336.33700395  .00000390  00000+0  27846-3 0  9994",
        "tle_line2": "2 29765  98.8310 354.8482 0059532 121.4399 250.9003 14.02147322966058"
      },
      "geometry": {
        "type": "Point",
        "coordinates": [
          171.66994151890756,
          -25.13587808629956
        ]
      }
    },
    {
      "type": "Feature",
      "properties": {
        "norad_id": 29766,
        "name": "FENGYUN 1C DEB",
        "group": "fengyun-1c-debris",
        "lat": 13.560712408406497,
        "lon": 109.6293327171733,
        "alt_km": 995.6112232290025,
        "timestamp": "2025-12-03T08:58:46.272510+00:00",
        "meta_object_name": "FENGYUN 1C DEB",
        "meta_object_id": "1999-025BG",
        "meta_epoch": "2025-12-03T03:06:03.584160",
        "meta_mean_motion": 13.9697868,
        "meta_eccentricity": 0.0146975,
        "meta_inclination": 98.6834,
        "meta_ra_of_asc_node": 287.2855,
        "meta_arg_of_pericenter": 314.8867,
        "meta_mean_anomaly": 61.0357,
        "meta_ephemeris_type": 0,
        "meta_classification_type": "U",
        "meta_norad_cat_id": 29766,
        "meta_element_set_no": 999,
        "meta_rev_at_epoch": 95670,
        "meta_bstar": 0.0020962,
        "meta_mean_motion_dot": 3.16e-05,
        "meta_mean_motion_ddot": 0,
        "tle_line1": "1 29766U 99025BG  25337.12920815  .00003160  00000+0  20962-2 0  9993",
        "tle_line2": "2 29766  98.6834 287.2855 0146975 314.8867  61.0357 13.96978680956702"
      },
      "geometry": {
        "type": "Point",
        "coordinates": [
          109.6293327171733,
          13.560712408406497
        ]
      }
    },
    {
      "type": "Feature",
      "properties": {
        "norad_id": 29767,
        "name": "FENGYUN 1C DEB",
        "group": "fengyun-1c-debris",
        "lat": -30.590845209422834,
        "lon": 122.08572468592003,
        "alt_km": 1014.5946224729105,
        "timestamp": "2025-12-03T08:58:46.272520+00:00",
        "meta_object_name": "FENGYUN 1C DEB",
        "meta_object_id": "1999-025BH",
        "meta_epoch": "2025-12-03T04:39:08.186400",
        "meta_mean_motion": 14.03198913,
        "meta_eccentricity": 0.0333072,
        "meta_inclination": 98.1983,
        "meta_ra_of_asc_node": 306.8119,
        "meta_arg_of_pericenter": 88.3622,
        "meta_mean_anomaly": 288.9446,
        "meta_ephemeris_type": 0,
        "meta_classification_type": "U",
        "meta_norad_cat_id": 29767,
        "meta_element_set_no": 999,
        "meta_rev_at_epoch": 95466,
        "meta_bstar": 0.0022746,
        "meta_mean_motion_dot": 5.764e-05,
        "meta_mean_motion_ddot": 0,
        "tle_line1": "1 29767U 99025BH  25337.19384475  .00005764  00000+0  22746-2 0  9991",
        "tle_line2": "2 29767  98.1983 306.8119 0333072  88.3622 288.9446 14.03198913954666"
      },
      "geometry": {
        "type": "Point",
        "coordinates": [
          122.08572468592003,
          -30.590845209422834
        ]
      }
    },
    {
      "type": "Feature",
      "properties": {
        "norad_id": 29769,
        "name": "FENGYUN 1C DEB",
        "group": "fengyun-1c-debris",
        "lat": -79.10587223910252,
        "lon": 90.94263354514048,
        "alt_km": 887.9841315732237,
        "timestamp": "2025-12-03T08:58:46.272531+00:00",
        "meta_object_name": "FENGYUN 1C DEB",
        "meta_object_id": "1999-025BK",
        "meta_epoch": "2025-12-02T16:23:36.839328",
        "meta_mean_motion": 14.1344001,
        "meta_eccentricity": 0.0094157,
        "meta_inclination": 99.1074,
        "meta_ra_of_asc_node": 33.7848,
        "meta_arg_of_pericenter": 158.4055,
        "meta_mean_anomaly": 202.1129,
        "meta_ephemeris_type": 0,
        "meta_classification_type": "U",
        "meta_norad_cat_id": 29769,
        "meta_element_set_no": 999,
        "meta_rev_at_epoch": 96539,
        "meta_bstar": 0.0018822,
        "meta_mean_motion_dot": 3.647e-05,
        "meta_mean_motion_ddot": 0,
        "tle_line1": "1 29769U 99025BK  25336.68306527  .00003647  00000+0  18822-2 0  9996",
        "tle_line2": "2 29769  99.1074  33.7848 0094157 158.4055 202.1129 14.13440010965399"
      },
      "geometry": {
        "type": "Point",
        "coordinates": [
          90.94263354514048,
          -79.10587223910252
        ]
      }
    }
  ]
}